LANDSAT 9               
1 49260U 21088A   24290.16695693  .00000861  00000+0  20116-3 0  9999
2 49260  98.2203 358.2462 0001259  77.6527 282.4812 14.57087413162318
